{
    "type": "Feature",
    "properties": {
        "id": "3156700",
        "name": "Sabará",
        "description": "Sabará"
    },
    "geometry": {
        "type": "Polygon",
        "coordinates": [
            [
                [
                    -43.7277763288,
                    -19.7348161715
                ],
                [
                    -43.7232319015,
                    -19.7428536621
                ],
                [
                    -43.7097229166,
                    -19.7405751264
                ],
                [
                    -43.7088561497,
                    -19.7473456477
                ],
                [
                    -43.7058055559,
                    -19.7535470517
                ],
                [
                    -43.6969185790,
                    -19.7543896782
                ],
                [
                    -43.6885851342,
                    -19.7670294589
                ],
                [
                    -43.6880873163,
                    -19.7866376359
                ],
                [
                    -43.6879287809,
                    -19.7869435315
                ],
                [
                    -43.6913616767,
                    -19.7997340305
                ],
                [
                    -43.6813094150,
                    -19.8081575160
                ],
                [
                    -43.6800288053,
                    -19.8129714942
                ],
                [
                    -43.6747741974,
                    -19.8136459411
                ],
                [
                    -43.6733837300,
                    -19.8201378007
                ],
                [
                    -43.6763395694,
                    -19.8226884215
                ],
                [
                    -43.6936814504,
                    -19.8241234137
                ],
                [
                    -43.7006627666,
                    -19.8216081868
                ],
                [
                    -43.7184446065,
                    -19.8288964078
                ],
                [
                    -43.7132887159,
                    -19.8394976899
                ],
                [
                    -43.7145404857,
                    -19.8496962104
                ],
                [
                    -43.7230308904,
                    -19.8606173844
                ],
                [
                    -43.7115551925,
                    -19.8745289829
                ],
                [
                    -43.7076124970,
                    -19.8868474322
                ],
                [
                    -43.7169442093,
                    -19.8879452979
                ],
                [
                    -43.7232276947,
                    -19.8778635409
                ],
                [
                    -43.7278301917,
                    -19.8797119833
                ],
                [
                    -43.7342795991,
                    -19.8770561221
                ],
                [
                    -43.7386049443,
                    -19.8797986581
                ],
                [
                    -43.7370847895,
                    -19.8886614630
                ],
                [
                    -43.7399775765,
                    -19.8924423646
                ],
                [
                    -43.7486589609,
                    -19.8973225276
                ],
                [
                    -43.7472498714,
                    -19.9008918051
                ],
                [
                    -43.7466944910,
                    -19.9070713396
                ],
                [
                    -43.7347232176,
                    -19.9194649166
                ],
                [
                    -43.7296200349,
                    -19.9424125244
                ],
                [
                    -43.7194770407,
                    -19.9566773567
                ],
                [
                    -43.7228019473,
                    -19.9669434058
                ],
                [
                    -43.7334145649,
                    -19.9606160479
                ],
                [
                    -43.7361616102,
                    -19.9543039546
                ],
                [
                    -43.7471942388,
                    -19.9582748145
                ],
                [
                    -43.7595532501,
                    -19.9573398644
                ],
                [
                    -43.7745593071,
                    -19.9505106957
                ],
                [
                    -43.7778643241,
                    -19.9438274515
                ],
                [
                    -43.7918915669,
                    -19.9503065373
                ],
                [
                    -43.8115001283,
                    -19.9431554300
                ],
                [
                    -43.8238373306,
                    -19.9410344377
                ],
                [
                    -43.8262628326,
                    -19.9442353875
                ],
                [
                    -43.8282457637,
                    -19.9397540481
                ],
                [
                    -43.8272188453,
                    -19.9344599768
                ],
                [
                    -43.8333636559,
                    -19.9399469096
                ],
                [
                    -43.8347202091,
                    -19.9273844343
                ],
                [
                    -43.8468603486,
                    -19.9273850101
                ],
                [
                    -43.8481622461,
                    -19.9307874375
                ],
                [
                    -43.8523053778,
                    -19.9276920332
                ],
                [
                    -43.8589198568,
                    -19.9315152579
                ],
                [
                    -43.8706677729,
                    -19.9278319329
                ],
                [
                    -43.8690044303,
                    -19.9242842047
                ],
                [
                    -43.8817007269,
                    -19.9054118579
                ],
                [
                    -43.8813337589,
                    -19.9011748014
                ],
                [
                    -43.8865126972,
                    -19.8919730736
                ],
                [
                    -43.8899157716,
                    -19.8918801234
                ],
                [
                    -43.8912261009,
                    -19.8848567318
                ],
                [
                    -43.9055579824,
                    -19.8855614428
                ],
                [
                    -43.9091314428,
                    -19.8757588514
                ],
                [
                    -43.8989222895,
                    -19.8745305173
                ],
                [
                    -43.8961957994,
                    -19.8635972175
                ],
                [
                    -43.8821343649,
                    -19.8613448250
                ],
                [
                    -43.8767780032,
                    -19.8670147148
                ],
                [
                    -43.8625333326,
                    -19.8554425194
                ],
                [
                    -43.8568973205,
                    -19.8573286857
                ],
                [
                    -43.8663248483,
                    -19.8471943017
                ],
                [
                    -43.8675217470,
                    -19.8394894108
                ],
                [
                    -43.8630895852,
                    -19.8370800438
                ],
                [
                    -43.8655802740,
                    -19.8308811375
                ],
                [
                    -43.8618362861,
                    -19.8269137404
                ],
                [
                    -43.8548037615,
                    -19.8337135610
                ],
                [
                    -43.8500014512,
                    -19.8321293020
                ],
                [
                    -43.8453000313,
                    -19.8291387365
                ],
                [
                    -43.8373330446,
                    -19.8250917692
                ],
                [
                    -43.8298573099,
                    -19.8281349566
                ],
                [
                    -43.8259713134,
                    -19.8341347352
                ],
                [
                    -43.8173938703,
                    -19.8323693115
                ],
                [
                    -43.8077501274,
                    -19.8417027670
                ],
                [
                    -43.8052046597,
                    -19.8380485235
                ],
                [
                    -43.7920267877,
                    -19.8352665228
                ],
                [
                    -43.7802499896,
                    -19.8484491404
                ],
                [
                    -43.7666997778,
                    -19.8409532243
                ],
                [
                    -43.7804176823,
                    -19.8365977388
                ],
                [
                    -43.7850555668,
                    -19.8238130186
                ],
                [
                    -43.7802448020,
                    -19.8207294835
                ],
                [
                    -43.7750074425,
                    -19.8088128457
                ],
                [
                    -43.7926970744,
                    -19.8047162649
                ],
                [
                    -43.7982221268,
                    -19.7984903586
                ],
                [
                    -43.7989738023,
                    -19.7912849544
                ],
                [
                    -43.8038625211,
                    -19.7858848169
                ],
                [
                    -43.8037625451,
                    -19.7717074810
                ],
                [
                    -43.8039759185,
                    -19.7619141613
                ],
                [
                    -43.7961645705,
                    -19.7541021290
                ],
                [
                    -43.7796646729,
                    -19.7540725662
                ],
                [
                    -43.7680898240,
                    -19.7440331242
                ],
                [
                    -43.7657544012,
                    -19.7380141587
                ],
                [
                    -43.7714174150,
                    -19.7359920162
                ],
                [
                    -43.7685612012,
                    -19.7298804036
                ],
                [
                    -43.7706374865,
                    -19.7258018580
                ],
                [
                    -43.7637829788,
                    -19.7246786026
                ],
                [
                    -43.7570288677,
                    -19.7305444931
                ],
                [
                    -43.7277763288,
                    -19.7348161715
                ]
            ]
        ]
    }
}